ORBCOMM-X               
1 21576U 91050C   24346.13576798  .00000760  00000+0  24001-3 0  9993
2 21576  98.3701  50.3659 0004385  48.6068 311.5499 14.42968747754999
ORBCOMM FM01            
1 23545U 95017A   24346.27441190  .00008609  00000+0  99465-3 0  9996
2 23545  69.9635 181.3508 0007037 258.0065 102.0299 14.85865318584557
ORBCOMM FM08            
1 25112U 97084A   24346.57917340  .00002896  00000+0  87120-3 0  9999
2 25112  45.0117 187.6827 0005937  27.9404 332.1765 14.44528757414238
ORBCOMM FM10            
1 25113U 97084B   24346.25792180  .00002720  00000+0  82354-3 0  9998
2 25113  45.0133 191.2963 0003799 349.5296  10.5476 14.44371127589332
ORBCOMM FM11            
1 25114U 97084C   24346.57740410  .00002758  00000+0  83822-3 0  9995
2 25114  45.0118 190.0767 0004666 352.2177   7.8600 14.44150789414376
ORBCOMM FM12            
1 25115U 97084D   24346.61087622  .00002778  00000+0  84380-3 0  9992
2 25115  45.0125 189.6758 0003619 352.0304   8.0489 14.44154905414143
ORBCOMM FM09            
1 25116U 97084E   24346.62926366  .00002547  00000+0  77837-3 0  9994
2 25116  45.0129 190.3590 0004833 333.5050  26.5553 14.44077146414386
